[
    {
        "Altitude(m)": 610399.5664337911,
        "Argument of Periapsis(deg)": 0.0,
        "Eccentricity": 0.0,
        "Inclination(deg)": 60.0,
        "Latitude(deg)": 52.1114386621434,
        "Longitude(deg)": 52.58419828780076,
        "Mean Anomaly(deg)": 65.45450000000001,
        "RAAN(deg)": 105.0,
        "Satellite Name": "Test1 466",
        "Satellite Number": 466,
        "Semi-Major Axis(m)": 6980739.136638005,
        "Time(s)": 0
    },
    {
        "Altitude(m)": 610481.7178091862,
        "Argument of Periapsis(deg)": 0.00010418945913296404,
        "Eccentricity": 0.0,
        "Inclination(deg)": 60.0,
        "Latitude(deg)": 52.47104204596425,
        "Longitude(deg)": 53.3663349486523,
        "Mean Anomaly(deg)": 66.07460614546183,
        "RAAN(deg)": 104.99957995086028,
        "Satellite Name": "Test1 466",
        "Satellite Number": 466,
        "Semi-Major Axis(m)": 6980739.136638005,
        "Time(s)": 10
    }
]